CCSDS_OMM_VERS = 2.0
CREATION_DATE  = 
ORIGINATOR     = 

OBJECT_NAME    = ATLAS CENTAUR R/B
OBJECT_ID      = 1972-065B
CENTER_NAME    = EARTH
REF_FRAME      = TEME
TIME_SYSTEM    = UTC
MEAN_ELEMENT_THEORY = SGP/SGP4

EPOCH          = 2025-12-22T19:07:04.181088
MEAN_MOTION    = 14.77433916
ECCENTRICITY   = .0033219
INCLINATION    = 35.0025
RA_OF_ASC_NODE = 36.2863
ARG_OF_PERICENTER = 83.2942
MEAN_ANOMALY   = 277.1537

EPHEMERIS_TYPE = 0
CLASSIFICATION_TYPE = U
NORAD_CAT_ID   = 6155
ELEMENT_SET_NO = 999
REV_AT_EPOCH   = 82988
BSTAR          = .14541E-3
MEAN_MOTION_DOT = .1037E-4
MEAN_MOTION_DDOT = 0

CCSDS_OMM_VERS = 2.0
CREATION_DATE  = 
ORIGINATOR     = 

OBJECT_NAME    = SL-8 R/B
OBJECT_ID      = 1975-112B
CENTER_NAME    = EARTH
REF_FRAME      = TEME
TIME_SYSTEM    = UTC
MEAN_ELEMENT_THEORY = SGP/SGP4

EPOCH          = 2025-12-22T11:59:31.564032
MEAN_MOTION    = 14.38152215
ECCENTRICITY   = .00166827
INCLINATION    = 74.0590
RA_OF_ASC_NODE = 160.9055
ARG_OF_PERICENTER = 271.2622
MEAN_ANOMALY   = 88.6621

EPHEMERIS_TYPE = 0
CLASSIFICATION_TYPE = U
NORAD_CAT_ID   = 8459
ELEMENT_SET_NO = 999
REV_AT_EPOCH   = 62077
BSTAR          = .12636705E-3
MEAN_MOTION_DOT = .358E-5
MEAN_MOTION_DDOT = 0

CCSDS_OMM_VERS = 2.0
CREATION_DATE  = 
ORIGINATOR     = 

OBJECT_NAME    = SL-3 R/B
OBJECT_ID      = 1977-057B
CENTER_NAME    = EARTH
REF_FRAME      = TEME
TIME_SYSTEM    = UTC
MEAN_ELEMENT_THEORY = SGP/SGP4

EPOCH          = 2025-12-22T11:35:59.002656
MEAN_MOTION    = 15.43168093
ECCENTRICITY   = .0007097
INCLINATION    = 97.5687
RA_OF_ASC_NODE = 160.1924
ARG_OF_PERICENTER = 193.5879
MEAN_ANOMALY   = 166.5178

EPHEMERIS_TYPE = 0
CLASSIFICATION_TYPE = U
NORAD_CAT_ID   = 10114
ELEMENT_SET_NO = 999
REV_AT_EPOCH   = 65641
BSTAR          = .32012457E-3
MEAN_MOTION_DOT = .14117E-3
MEAN_MOTION_DDOT = 0

CCSDS_OMM_VERS = 2.0
CREATION_DATE  = 
ORIGINATOR     = 

OBJECT_NAME    = SEASAT 1
OBJECT_ID      = 1978-064A
CENTER_NAME    = EARTH
REF_FRAME      = TEME
TIME_SYSTEM    = UTC
MEAN_ELEMENT_THEORY = SGP/SGP4

EPOCH          = 2025-12-22T20:25:48.748224
MEAN_MOTION    = 14.46071447
ECCENTRICITY   = .0001381
INCLINATION    = 108.0135
RA_OF_ASC_NODE = 324.2484
ARG_OF_PERICENTER = 254.2230
MEAN_ANOMALY   = 105.8763

EPHEMERIS_TYPE = 0
CLASSIFICATION_TYPE = U
NORAD_CAT_ID   = 10967
ELEMENT_SET_NO = 999
REV_AT_EPOCH   = 49540
BSTAR          = .11602E-3
MEAN_MOTION_DOT = .277E-5
MEAN_MOTION_DDOT = 0

CCSDS_OMM_VERS = 2.0
CREATION_DATE  = 
ORIGINATOR     = 

OBJECT_NAME    = SL-14 R/B
OBJECT_ID      = 1979-011B
CENTER_NAME    = EARTH
REF_FRAME      = TEME
TIME_SYSTEM    = UTC
MEAN_ELEMENT_THEORY = SGP/SGP4

EPOCH          = 2025-12-22T12:20:12.420096
MEAN_MOTION    = 14.91781040
ECCENTRICITY   = .00150825
INCLINATION    = 82.5234
RA_OF_ASC_NODE = 169.7739
ARG_OF_PERICENTER = 319.6173
MEAN_ANOMALY   = 40.3925

EPHEMERIS_TYPE = 0
CLASSIFICATION_TYPE = U
NORAD_CAT_ID   = 11267
ELEMENT_SET_NO = 999
REV_AT_EPOCH   = 51727
BSTAR          = .56012131E-4
MEAN_MOTION_DOT = .591E-5
MEAN_MOTION_DDOT = 0

CCSDS_OMM_VERS = 2.0
CREATION_DATE  = 
ORIGINATOR     = 

OBJECT_NAME    = SL-8 R/B
OBJECT_ID      = 1979-089B
CENTER_NAME    = EARTH
REF_FRAME      = TEME
TIME_SYSTEM    = UTC
MEAN_ELEMENT_THEORY = SGP/SGP4

EPOCH          = 2025-12-22T19:47:14.589024
MEAN_MOTION    = 14.42289890
ECCENTRICITY   = .0014646
INCLINATION    = 74.0679
RA_OF_ASC_NODE = 233.3146
ARG_OF_PERICENTER = 63.4660
MEAN_ANOMALY   = 296.7996

EPHEMERIS_TYPE = 0
CLASSIFICATION_TYPE = U
NORAD_CAT_ID   = 11574
ELEMENT_SET_NO = 999
REV_AT_EPOCH   = 42502
BSTAR          = .77979E-4
MEAN_MOTION_DOT = .231E-5
MEAN_MOTION_DDOT = 0

CCSDS_OMM_VERS = 2.0
CREATION_DATE  = 
ORIGINATOR     = 

OBJECT_NAME    = SL-14 R/B
OBJECT_ID      = 1980-005B
CENTER_NAME    = EARTH
REF_FRAME      = TEME
TIME_SYSTEM    = UTC
MEAN_ELEMENT_THEORY = SGP/SGP4

EPOCH          = 2025-12-22T13:02:42.995616
MEAN_MOTION    = 14.90802429
ECCENTRICITY   = .00172077
INCLINATION    = 82.5141
RA_OF_ASC_NODE = 20.4008
ARG_OF_PERICENTER = 63.6615
MEAN_ANOMALY   = 296.6369

EPHEMERIS_TYPE = 0
CLASSIFICATION_TYPE = U
NORAD_CAT_ID   = 11672
ELEMENT_SET_NO = 999
REV_AT_EPOCH   = 46499
BSTAR          = .49007684E-4
MEAN_MOTION_DOT = .509E-5
MEAN_MOTION_DDOT = 0

CCSDS_OMM_VERS = 2.0
CREATION_DATE  = 
ORIGINATOR     = 

OBJECT_NAME    = SL-8 R/B
OBJECT_ID      = 1981-003B
CENTER_NAME    = EARTH
REF_FRAME      = TEME
TIME_SYSTEM    = UTC
MEAN_ELEMENT_THEORY = SGP/SGP4

EPOCH          = 2025-12-22T11:56:07.475136
MEAN_MOTION    = 15.07306314
ECCENTRICITY   = .02782694
INCLINATION    = 82.9325
RA_OF_ASC_NODE = 1.2235
ARG_OF_PERICENTER = 86.7267
MEAN_ANOMALY   = 276.5753

EPHEMERIS_TYPE = 0
CLASSIFICATION_TYPE = U
NORAD_CAT_ID   = 12139
ELEMENT_SET_NO = 999
REV_AT_EPOCH   = 30303
BSTAR          = .45017556E-3
MEAN_MOTION_DOT = .17017E-3
MEAN_MOTION_DDOT = 0

CCSDS_OMM_VERS = 2.0
CREATION_DATE  = 
ORIGINATOR     = 

OBJECT_NAME    = SL-3 R/B
OBJECT_ID      = 1981-046B
CENTER_NAME    = EARTH
REF_FRAME      = TEME
TIME_SYSTEM    = UTC
MEAN_ELEMENT_THEORY = SGP/SGP4

EPOCH          = 2025-12-22T18:25:16.325184
MEAN_MOTION    = 15.39800622
ECCENTRICITY   = .0018224
INCLINATION    = 81.2318
RA_OF_ASC_NODE = 21.9396
ARG_OF_PERICENTER = 287.8668
MEAN_ANOMALY   = 72.0585

EPHEMERIS_TYPE = 0
CLASSIFICATION_TYPE = U
NORAD_CAT_ID   = 12465
ELEMENT_SET_NO = 999
REV_AT_EPOCH   = 42658
BSTAR          = .28036E-3
MEAN_MOTION_DOT = .11207E-3
MEAN_MOTION_DDOT = 0

CCSDS_OMM_VERS = 2.0
CREATION_DATE  = 
ORIGINATOR     = 

OBJECT_NAME    = SL-3 R/B
OBJECT_ID      = 1981-103B
CENTER_NAME    = EARTH
REF_FRAME      = TEME
TIME_SYSTEM    = UTC
MEAN_ELEMENT_THEORY = SGP/SGP4

EPOCH          = 2025-12-22T20:40:55.003008
MEAN_MOTION    = 15.20345407
ECCENTRICITY   = .0012557
INCLINATION    = 81.1606
RA_OF_ASC_NODE = 303.4981
ARG_OF_PERICENTER = 176.9398
MEAN_ANOMALY   = 183.1912

EPHEMERIS_TYPE = 0
CLASSIFICATION_TYPE = U
NORAD_CAT_ID   = 12904
ELEMENT_SET_NO = 999
REV_AT_EPOCH   = 96155
BSTAR          = .29911E-3
MEAN_MOTION_DOT = .6544E-4
MEAN_MOTION_DDOT = 0

CCSDS_OMM_VERS = 2.0
CREATION_DATE  = 
ORIGINATOR     = 

OBJECT_NAME    = SL-3 R/B
OBJECT_ID      = 1982-013B
CENTER_NAME    = EARTH
REF_FRAME      = TEME
TIME_SYSTEM    = UTC
MEAN_ELEMENT_THEORY = SGP/SGP4

EPOCH          = 2025-12-22T18:34:09.545376
MEAN_MOTION    = 15.21169258
ECCENTRICITY   = .0024115
INCLINATION    = 81.1747
RA_OF_ASC_NODE = 250.8649
ARG_OF_PERICENTER = 78.7962
MEAN_ANOMALY   = 281.5978

EPHEMERIS_TYPE = 0
CLASSIFICATION_TYPE = U
NORAD_CAT_ID   = 13068
ELEMENT_SET_NO = 999
REV_AT_EPOCH   = 39265
BSTAR          = .19715E-3
MEAN_MOTION_DOT = .4453E-4
MEAN_MOTION_DDOT = 0

CCSDS_OMM_VERS = 2.0
CREATION_DATE  = 
ORIGINATOR     = 

OBJECT_NAME    = SL-3 R/B
OBJECT_ID      = 1982-039B
CENTER_NAME    = EARTH
REF_FRAME      = TEME
TIME_SYSTEM    = UTC
MEAN_ELEMENT_THEORY = SGP/SGP4

EPOCH          = 2025-12-22T20:20:00.589056
MEAN_MOTION    = 15.09579002
ECCENTRICITY   = .0029416
INCLINATION    = 81.1715
RA_OF_ASC_NODE = 304.4683
ARG_OF_PERICENTER = 217.9156
MEAN_ANOMALY   = 141.9998

EPHEMERIS_TYPE = 0
CLASSIFICATION_TYPE = U
NORAD_CAT_ID   = 13154
ELEMENT_SET_NO = 999
REV_AT_EPOCH   = 37004
BSTAR          = .17005E-3
MEAN_MOTION_DOT = .2781E-4
MEAN_MOTION_DDOT = 0

