ATLAS CENTAUR R/B       
1 06155U 72065B   25356.79657617  .00001037  00000+0  14541-3 0  9994
2 06155  35.0025  36.2863 0033219  83.2942 277.1537 14.77433916829880
SL-8 R/B                
1 08459U 75112B   25356.49967088  .00000358  00000+0  12637-3 0  9991
2 08459  74.0590 160.9055 0016682 271.2622  88.6621 14.38152215620779
SL-3 R/B                
1 10114U 77057B   25356.48332179  .00014117  00000+0  32012-3 0  9995
2 10114  97.5687 160.1924 0007097 193.5879 166.5178 15.43168093656415
SEASAT 1                
1 10967U 78064A   25356.85125866  .00000277  00000+0  11602-3 0  9998
2 10967 108.0135 324.2484 0001381 254.2230 105.8763 14.46071447495401
SL-14 R/B               
1 11267U 79011B   25356.51403264  .00000591  00000+0  56012-4 0  9993
2 11267  82.5234 169.7739 0015082 319.6173  40.3925 14.91781040517271
SL-8 R/B                
1 11574U 79089B   25356.82447441  .00000231  00000+0  77979-4 0  9994
2 11574  74.0679 233.3146 0014646  63.4660 296.7996 14.42289890425029
SL-14 R/B               
1 11672U 80005B   25356.54355319  .00000509  00000+0  49008-4 0  9994
2 11672  82.5141  20.4008 0017207  63.6615 296.6369 14.90802429464990
SL-8 R/B                
1 12139U 81003B   25356.49730874  .00017017  00000+0  45018-3 0  9997
2 12139  82.9325   1.2235 0278269  86.7267 276.5753 15.07306314303034
SL-3 R/B                
1 12465U 81046B   25356.76755006  .00011207  00000+0  28036-3 0  9996
2 12465  81.2318  21.9396 0018224 287.8668  72.0585 15.39800622426583
SL-3 R/B                
1 12904U 81103B   25356.86174772  .00006544  00000+0  29911-3 0  9995
2 12904  81.1606 303.4981 0012557 176.9398 183.1912 15.20345407961553
SL-3 R/B                
1 13068U 82013B   25356.77372159  .00004453  00000+0  19715-3 0  9995
2 13068  81.1747 250.8649 0024115  78.7962 281.5978 15.21169258392659
SL-3 R/B                
1 13154U 82039B   25356.84722904  .00002781  00000+0  17005-3 0  9996
2 13154  81.1715 304.4683 0029416 217.9156 141.9998 15.09579002370043
